STARLINK-2121_new
1 17399C 21005BC  21326.10573155  .00007483  00000-0  50129-3 0  3267
2 17399  53.0542 243.2616 0002063  66.6026  16.9966 15.06398442    14
STARLINK-2121_old
1 27399C 21005BC  21325.11005341  .00005732  00000-0  38412-3 0  3259
2 27399  53.0548 247.7310 0001983  65.2785  15.7389 15.06389212    18
